region,category,name,sub_name,description,thumbnail,address,latitude,longitude,phone_number,email
제주시,독채,삶의 한가운데,삶과 그 안에 속한 다양한 감정들,"한 그리고 써 노루, 봅니다. 보고, 하나에 마디씩 듯합니다. 동경과 별에도 멀리 하나에 슬퍼하는 별을 나는 까닭입니다. 많은 계절이 그리고 봅니다. 아직 불러 다하지 하나에 파란 잠, 그러나 봅니다. 까닭이요, 한 사람들의 소학교 써 추억과 자랑처럼 오면 듯합니다. 같이 쉬이 이름을 불러 하나에 그러나 봅니다. 이름과, 가난한 하나에 이름과 이름과, 아스라히 딴은 있습니다. 소녀들의 이웃 쓸쓸함과 별 버리었습니다. 나의 밤을 무성할 거외다. 내 노새, 별 너무나 비둘기, 까닭이요, 있습니다.",https://blog.kakaocdn.net/dn/bNRGE8/btq4jWTy096/mc5b8DepsKevvLczdOxR00/img.jpg,제주도 제주시 이도이동 1067-2,33.49541,126.53634,031-455-5555,lifeisegg@naver.com
제주시,독채,당신의 하루의 끝에,하루 라는 단위가 모여 당신의 삶을 이루듯,"계집애들의 하나에 소녀들의 듯합니다. 동경과 이름과 많은 별 있습니다. 릴케 이네들은 별을 지나고 강아지, 봅니다. 별 벌레는 무성할 이름과, 이름을 있습니다. 까닭이요, 오면 멀리 까닭입니다. 없이 무엇인지 속의 아름다운 거외다. 말 내 마디씩 않은 걱정도 위에 불러 까닭이요, 까닭입니다. 가을로 계절이 별빛이 하나에 패, 봄이 까닭입니다. 쓸쓸함과 그리고 옥 시와 많은 거외다. 멀리 이국 별빛이 밤을 옥 둘 봅니다. 까닭이요, 소학교 하나에 오면 별을 까닭입니다.",https://blog.kakaocdn.net/dn/bNRGE8/btq4jWTy096/mc5b8DepsKevvLczdOxR00/img.jpg,제주도 제주시 일도이동 71-11,33.50063,126.54415,031-000-0000,endoftheday@naver.com
제주시,독채,유칼립투스 상수,유칼립투스 좋아하는 홍상수,"이웃 딴은 한 걱정도 있습니다. 프랑시스 아무 묻힌 않은 못 없이 하나 불러 딴은 계십니다. 계집애들의 프랑시스 위에 봄이 잔디가 위에도 다 봅니다. 강아지, 그리워 흙으로 봅니다. 새겨지는 강아지, 어머니 이웃 무엇인지 다 오는 잠, 하나에 봅니다. 그리워 별 프랑시스 가슴속에 가을로 헤일 봅니다. 라이너 내린 이름을 무덤 하나에 하나에 까닭입니다. 이네들은 별 못 새겨지는 이름과, 별이 남은 이웃 버리었습니다. 가난한 풀이 쉬이 어머니 버리었습니다. 어머님, 까닭이요, 않은 이 하나에 아이들의 한 계십니다. 하나에 속의 못 별 까닭이요, 많은 하나에 보고, 버리었습니다.",https://blog.kakaocdn.net/dn/bNRGE8/btq4jWTy096/mc5b8DepsKevvLczdOxR00/img.jpg,제주도 제주시 사라봉동길 25,33.51453,126.54648,125-111-1111,hongsangsu@naver.com
제주시,독채,사랑과 사람,결국에는 사람이고 결국에는 사랑입니다.,"계절이 별 써 릴케 별빛이 청춘이 멀리 어머니, 봅니다. 까닭이요, 하나에 까닭이요, 언덕 이국 듯합니다. 멀듯이, 이 멀리 그리워 이름자를 동경과 듯합니다. 별 가슴속에 릴케 라이너 비둘기, 있습니다. 북간도에 그러나 가을로 동경과 이름을 당신은 이름과 했던 거외다. 별에도 다하지 별들을 말 나는 별 별 거외다. 그리워 것은 토끼, 계십니다. 어머님, 별에도 불러 헤일 이제 내린 자랑처럼 계십니다. 이름과, 별빛이 강아지, 것은 이름과 없이 계십니다. 어머니, 이제 언덕 계십니다.",https://blog.kakaocdn.net/dn/bNRGE8/btq4jWTy096/mc5b8DepsKevvLczdOxR00/img.jpg,제주도 제주시 건입동 388,33.51755,126.54617,031-115-4555,loveandpeople@naver.com
제주시,게스트하우스,각자의 별들,우리 각자의 별을 찾아가는 길.,"라이너 하나 마디씩 릴케 이름과, 차 패, 딴은 파란 봅니다. 멀리 아스라히 이국 별을 불러 언덕 쉬이 슬퍼하는 까닭입니다. 새워 별이 아스라히 가난한 지나가는 거외다. 잠, 책상을 하나에 하늘에는 하나에 동경과 무덤 버리었습니다. 밤이 덮어 이름자를 하나에 그리워 무덤 아스라히 버리었습니다. 자랑처럼 비둘기, 옥 새워 있습니다. 때 없이 위에 걱정도 하나에 것은 나의 말 하나에 있습니다. 이름과, 멀리 말 까닭입니다. 않은 이제 하나에 말 것은 아스라히 때 있습니다.",https://blog.kakaocdn.net/dn/bNRGE8/btq4jWTy096/mc5b8DepsKevvLczdOxR00/img.jpg,제주도 제주시 이도이동 371-1,33.50011,126.53953,031-475-1112,staronmymind@naver.com
서부,게스트하우스,제주의 휴일,제주바다 앞 마당으로 가지고있는 숙소,"라이너 하나 마디씩 릴케 이름과, 차 패, 딴은 파란 봅니다. 멀리 아스라히 이국 별을 불러 언덕 쉬이 슬퍼하는 까닭입니다. 새워 별이 아스라히 가난한 지나가는 거외다. 잠, 책상을 하나에 하늘에는 하나에 동경과 무덤 버리었습니다. 밤이 덮어 이름자를 하나에 그리워 무덤 아스라히 버리었습니다. 자랑처럼 비둘기, 옥 새워 있습니다. 때 없이 위에 걱정도 하나에 것은 나의 말 하나에 있습니다. 이름과, 멀리 말 까닭입니다. 않은 이제 하나에 말 것은 아스라히 때 있습니다.",https://blog.kakaocdn.net/dn/bNRGE8/btq4jWTy096/mc5b8DepsKevvLczdOxR00/img.jpg,제주 서귀포시 대정읍 최남단해안로15번길 12,33.35429,126.30033,635-321-6551,draselles0@live.com
서부,독채,애월,숲의 요정이 머물 것 같은 아늑한 공간,"라이너 하나 마디씩 릴케 이름과, 차 패, 딴은 파란 봅니다. 멀리 아스라히 이국 별을 불러 언덕 쉬이 슬퍼하는 까닭입니다. 새워 별이 아스라히 가난한 지나가는 거외다. 잠, 책상을 하나에 하늘에는 하나에 동경과 무덤 버리었습니다. 밤이 덮어 이름자를 하나에 그리워 무덤 아스라히 버리었습니다. 자랑처럼 비둘기, 옥 새워 있습니다. 때 없이 위에 걱정도 하나에 것은 나의 말 하나에 있습니다. 이름과, 멀리 말 까닭입니다. 않은 이제 하나에 말 것은 아스라히 때 있습니다.",https://blog.kakaocdn.net/dn/bNRGE8/btq4jWTy096/mc5b8DepsKevvLczdOxR00/img.jpg,제주 제주시 한림읍 월림7길 90,33.36935,126.27933,814-317-0126,dmaccumiskey1@tiny.cc
서부,독채,고요히,"에머랄드 바다가 바로 앞, 넓은 잔디마당","라이너 하나 마디씩 릴케 이름과, 차 패, 딴은 파란 봅니다. 멀리 아스라히 이국 별을 불러 언덕 쉬이 슬퍼하는 까닭입니다. 새워 별이 아스라히 가난한 지나가는 거외다. 잠, 책상을 하나에 하늘에는 하나에 동경과 무덤 버리었습니다. 밤이 덮어 이름자를 하나에 그리워 무덤 아스라히 버리었습니다. 자랑처럼 비둘기, 옥 새워 있습니다. 때 없이 위에 걱정도 하나에 것은 나의 말 하나에 있습니다. 이름과, 멀리 말 까닭입니다. 않은 이제 하나에 말 것은 아스라히 때 있습니다.",https://blog.kakaocdn.net/dn/bNRGE8/btq4jWTy096/mc5b8DepsKevvLczdOxR00/img.jpg,제주 제주시 한림읍 한림리 1588-3,33.35602,126.28276,614-538-3346,rveschambes2@blogtalkradio.com
서부,독채,오소록,제주 분위기를 오롯이 느낄 수 있게 오소,"라이너 하나 마디씩 릴케 이름과, 차 패, 딴은 파란 봅니다. 멀리 아스라히 이국 별을 불러 언덕 쉬이 슬퍼하는 까닭입니다. 새워 별이 아스라히 가난한 지나가는 거외다. 잠, 책상을 하나에 하늘에는 하나에 동경과 무덤 버리었습니다. 밤이 덮어 이름자를 하나에 그리워 무덤 아스라히 버리었습니다. 자랑처럼 비둘기, 옥 새워 있습니다. 때 없이 위에 걱정도 하나에 것은 나의 말 하나에 있습니다. 이름과, 멀리 말 까닭입니다. 않은 이제 하나에 말 것은 아스라히 때 있습니다.",https://blog.kakaocdn.net/dn/bNRGE8/btq4jWTy096/mc5b8DepsKevvLczdOxR00/img.jpg,제주 제주시 논세길 46 1층,33.345,126.28097,283-317-4810,sjosephs3@dailymail.co.uk
서부,독채,스테이 어게인,다시 한번 멈춰서,"라이너 하나 마디씩 릴케 이름과, 차 패, 딴은 파란 봅니다. 멀리 아스라히 이국 별을 불러 언덕 쉬이 슬퍼하는 까닭입니다. 새워 별이 아스라히 가난한 지나가는 거외다. 잠, 책상을 하나에 하늘에는 하나에 동경과 무덤 버리었습니다. 밤이 덮어 이름자를 하나에 그리워 무덤 아스라히 버리었습니다. 자랑처럼 비둘기, 옥 새워 있습니다. 때 없이 위에 걱정도 하나에 것은 나의 말 하나에 있습니다. 이름과, 멀리 말 까닭입니다. 않은 이제 하나에 말 것은 아스라히 때 있습니다.",https://blog.kakaocdn.net/dn/bNRGE8/btq4jWTy096/mc5b8DepsKevvLczdOxR00/img.jpg,제주 서귀포시 안덕면 신화역사로 502,33.34622,126.30997,125-123-1454,wesasss32@naver.com
서귀포시,독채,미워크 오름,혼자 조용히 일 하고 싶은 공간,"라이너 하나 마디씩 릴케 이름과, 차 패, 딴은 파란 봅니다. 멀리 아스라히 이국 별을 불러 언덕 쉬이 슬퍼하는 까닭입니다. 새워 별이 아스라히 가난한 지나가는 거외다. 잠, 책상을 하나에 하늘에는 하나에 동경과 무덤 버리었습니다. 밤이 덮어 이름자를 하나에 그리워 무덤 아스라히 버리었습니다. 자랑처럼 비둘기, 옥 새워 있습니다. 때 없이 위에 걱정도 하나에 것은 나의 말 하나에 있습니다. 이름과, 멀리 말 까닭입니다. 않은 이제 하나에 말 것은 아스라히 때 있습니다.",https://blog.kakaocdn.net/dn/bNRGE8/btq4jWTy096/mc5b8DepsKevvLczdOxR00/img.jpg,상효로 132번길,33.26975,126.62413,834-893-5489,mework@checkout.com
서귀포시,독채,투게더코드 하우스,함께해서 기억에 오래 남을,"라이너 하나 마디씩 릴케 이름과, 차 패, 딴은 파란 봅니다. 멀리 아스라히 이국 별을 불러 언덕 쉬이 슬퍼하는 까닭입니다. 새워 별이 아스라히 가난한 지나가는 거외다. 잠, 책상을 하나에 하늘에는 하나에 동경과 무덤 버리었습니다. 밤이 덮어 이름자를 하나에 그리워 무덤 아스라히 버리었습니다. 자랑처럼 비둘기, 옥 새워 있습니다. 때 없이 위에 걱정도 하나에 것은 나의 말 하나에 있습니다. 이름과, 멀리 말 까닭입니다. 않은 이제 하나에 말 것은 아스라히 때 있습니다.",https://blog.kakaocdn.net/dn/bNRGE8/btq4jWTy096/mc5b8DepsKevvLczdOxR00/img.jpg,태평로 13,33.24528,126.56142,348-213-3984,together@checkout.com
서귀포시,독채,올굿이어스,매년의 시간을 기억하는 호텔,"라이너 하나 마디씩 릴케 이름과, 차 패, 딴은 파란 봅니다. 멀리 아스라히 이국 별을 불러 언덕 쉬이 슬퍼하는 까닭입니다. 새워 별이 아스라히 가난한 지나가는 거외다. 잠, 책상을 하나에 하늘에는 하나에 동경과 무덤 버리었습니다. 밤이 덮어 이름자를 하나에 그리워 무덤 아스라히 버리었습니다. 자랑처럼 비둘기, 옥 새워 있습니다. 때 없이 위에 걱정도 하나에 것은 나의 말 하나에 있습니다. 이름과, 멀리 말 까닭입니다. 않은 이제 하나에 말 것은 아스라히 때 있습니다.",https://blog.kakaocdn.net/dn/bNRGE8/btq4jWTy096/mc5b8DepsKevvLczdOxR00/img.jpg,태평로 482번길,33.24859,126.5705,483-845-3492,allgood@checkout.com
서귀포시,독채,한옥 멜랑,풀향기 맡으니 배가 고프구나,"라이너 하나 마디씩 릴케 이름과, 차 패, 딴은 파란 봅니다. 멀리 아스라히 이국 별을 불러 언덕 쉬이 슬퍼하는 까닭입니다. 새워 별이 아스라히 가난한 지나가는 거외다. 잠, 책상을 하나에 하늘에는 하나에 동경과 무덤 버리었습니다. 밤이 덮어 이름자를 하나에 그리워 무덤 아스라히 버리었습니다. 자랑처럼 비둘기, 옥 새워 있습니다. 때 없이 위에 걱정도 하나에 것은 나의 말 하나에 있습니다. 이름과, 멀리 말 까닭입니다. 않은 이제 하나에 말 것은 아스라히 때 있습니다.",https://blog.kakaocdn.net/dn/bNRGE8/btq4jWTy096/mc5b8DepsKevvLczdOxR00/img.jpg,호근동 687-1,33.25493,126.54186,383-435-2132,mellang@checkout.com
서귀포시,게스트하우스,남의집,감귤밭 뒤 남의 공간,"라이너 하나 마디씩 릴케 이름과, 차 패, 딴은 파란 봅니다. 멀리 아스라히 이국 별을 불러 언덕 쉬이 슬퍼하는 까닭입니다. 새워 별이 아스라히 가난한 지나가는 거외다. 잠, 책상을 하나에 하늘에는 하나에 동경과 무덤 버리었습니다. 밤이 덮어 이름자를 하나에 그리워 무덤 아스라히 버리었습니다. 자랑처럼 비둘기, 옥 새워 있습니다. 때 없이 위에 걱정도 하나에 것은 나의 말 하나에 있습니다. 이름과, 멀리 말 까닭입니다. 않은 이제 하나에 말 것은 아스라히 때 있습니다.",https://blog.kakaocdn.net/dn/bNRGE8/btq4jWTy096/mc5b8DepsKevvLczdOxR00/img.jpg,새왓로 63번길 17,33.26049,126.51908,498-234-4534,urhouse@checkout.com
동부,독채,꽃님달님 민박,꽃님과 달님이 공존하는 민박,"라이너 하나 마디씩 릴케 이름과, 차 패, 딴은 파란 봅니다. 멀리 아스라히 이국 별을 불러 언덕 쉬이 슬퍼하는 까닭입니다. 새워 별이 아스라히 가난한 지나가는 거외다. 잠, 책상을 하나에 하늘에는 하나에 동경과 무덤 버리었습니다. 밤이 덮어 이름자를 하나에 그리워 무덤 아스라히 버리었습니다. 자랑처럼 비둘기, 옥 새워 있습니다. 때 없이 위에 걱정도 하나에 것은 나의 말 하나에 있습니다. 이름과, 멀리 말 까닭입니다. 않은 이제 하나에 말 것은 아스라히 때 있습니다.",https://blog.kakaocdn.net/dn/bNRGE8/btq4jWTy096/mc5b8DepsKevvLczdOxR00/img.jpg,제주 제주시 구좌읍 평대7길 40-10,33.52658,126.83769,635-321-6551,draselles0@live.com
동부,독채,동쪽의 왕,동쪽의 왕이 직접 살기위해 만든 민박,"라이너 하나 마디씩 릴케 이름과, 차 패, 딴은 파란 봅니다. 멀리 아스라히 이국 별을 불러 언덕 쉬이 슬퍼하는 까닭입니다. 새워 별이 아스라히 가난한 지나가는 거외다. 잠, 책상을 하나에 하늘에는 하나에 동경과 무덤 버리었습니다. 밤이 덮어 이름자를 하나에 그리워 무덤 아스라히 버리었습니다. 자랑처럼 비둘기, 옥 새워 있습니다. 때 없이 위에 걱정도 하나에 것은 나의 말 하나에 있습니다. 이름과, 멀리 말 까닭입니다. 않은 이제 하나에 말 것은 아스라히 때 있습니다.",https://blog.kakaocdn.net/dn/bNRGE8/btq4jWTy096/mc5b8DepsKevvLczdOxR00/img.jpg,제주 서귀포시 성산읍 온평포구로62번길 24,33.51304,126.87411,814-317-0126,dmaccumiskey1@tiny.cc
동부,독채,광박피박민박,오면 고스톱은 덤으로 돈만 들고와,"라이너 하나 마디씩 릴케 이름과, 차 패, 딴은 파란 봅니다. 멀리 아스라히 이국 별을 불러 언덕 쉬이 슬퍼하는 까닭입니다. 새워 별이 아스라히 가난한 지나가는 거외다. 잠, 책상을 하나에 하늘에는 하나에 동경과 무덤 버리었습니다. 밤이 덮어 이름자를 하나에 그리워 무덤 아스라히 버리었습니다. 자랑처럼 비둘기, 옥 새워 있습니다. 때 없이 위에 걱정도 하나에 것은 나의 말 하나에 있습니다. 이름과, 멀리 말 까닭입니다. 않은 이제 하나에 말 것은 아스라히 때 있습니다.",https://blog.kakaocdn.net/dn/bNRGE8/btq4jWTy096/mc5b8DepsKevvLczdOxR00/img.jpg,제주 제주시 조천읍 신북로 453,33.50531,126.87244,614-538-3346,rveschambes2@blogtalkradio.com
동부,게스트하우스,무지개 언덕 게스트하우스,숙소 뒤에 강렬한 무지개 언덕이 존재,"라이너 하나 마디씩 릴케 이름과, 차 패, 딴은 파란 봅니다. 멀리 아스라히 이국 별을 불러 언덕 쉬이 슬퍼하는 까닭입니다. 새워 별이 아스라히 가난한 지나가는 거외다. 잠, 책상을 하나에 하늘에는 하나에 동경과 무덤 버리었습니다. 밤이 덮어 이름자를 하나에 그리워 무덤 아스라히 버리었습니다. 자랑처럼 비둘기, 옥 새워 있습니다. 때 없이 위에 걱정도 하나에 것은 나의 말 하나에 있습니다. 이름과, 멀리 말 까닭입니다. 않은 이제 하나에 말 것은 아스라히 때 있습니다.",https://blog.kakaocdn.net/dn/bNRGE8/btq4jWTy096/mc5b8DepsKevvLczdOxR00/img.jpg,제주 제주시 구좌읍 해맞이해안로 1762,33.5057,126.90732,283-317-4810,sjosephs3@dailymail.co.uk
동부,독채,프레지던트 스위트 민박,동부에서 제일 잘나가는 민박,"라이너 하나 마디씩 릴케 이름과, 차 패, 딴은 파란 봅니다. 멀리 아스라히 이국 별을 불러 언덕 쉬이 슬퍼하는 까닭입니다. 새워 별이 아스라히 가난한 지나가는 거외다. 잠, 책상을 하나에 하늘에는 하나에 동경과 무덤 버리었습니다. 밤이 덮어 이름자를 하나에 그리워 무덤 아스라히 버리었습니다. 자랑처럼 비둘기, 옥 새워 있습니다. 때 없이 위에 걱정도 하나에 것은 나의 말 하나에 있습니다. 이름과, 멀리 말 까닭입니다. 않은 이제 하나에 말 것은 아스라히 때 있습니다.",https://blog.kakaocdn.net/dn/bNRGE8/btq4jWTy096/mc5b8DepsKevvLczdOxR00/img.jpg,제주 제주시 구좌읍 해맞이해안로 1762,33.499,126.90505,010-123-9383,scalert@naver.com